{
  "type": "FeatureCollection",
  "features": [
    {
      "type": "Feature",
      "properties": {
        "norad_id": 34340,
        "name": "COSMOS 2251 DEB",
        "group": "cosmos-2251-debris",
        "lat": 61.19711774877669,
        "lon": -34.17727955549639,
        "alt_km": 769.5610313689822,
        "timestamp": "2025-12-20T18:51:32.107233+00:00",
        "meta_object_name": "COSMOS 2251 DEB",
        "meta_object_id": "1993-036PN",
        "meta_epoch": "2025-12-20T14:11:27.632256",
        "meta_mean_motion": 13.79601032,
        "meta_eccentricity": 0.02836466,
        "meta_inclination": 74.0788,
        "meta_ra_of_asc_node": 294.873,
        "meta_arg_of_pericenter": 40.8162,
        "meta_mean_anomaly": 137.9392,
        "meta_ephemeris_type": 0,
        "meta_classification_type": "U",
        "meta_norad_cat_id": 34340,
        "meta_element_set_no": 999,
        "meta_rev_at_epoch": 84376,
        "meta_bstar": 0.0012103828,
        "meta_mean_motion_dot": 1.667e-05,
        "meta_mean_motion_ddot": 0,
        "tle_line1": "1 34340U 93036PN  25354.59129204  .00001667  00000+0  12104-2 0  9995",
        "tle_line2": "2 34340  74.0788 294.8730 0283646  40.8162 137.9392 13.79601032843767"
      },
      "geometry": {
        "type": "Point",
        "coordinates": [
          -34.17727955549639,
          61.19711774877669
        ]
      }
    },
    {
      "type": "Feature",
      "properties": {
        "norad_id": 34343,
        "name": "COSMOS 2251 DEB",
        "group": "cosmos-2251-debris",
        "lat": -37.68814274574926,
        "lon": -93.2585050542171,
        "alt_km": 678.6593014128002,
        "timestamp": "2025-12-20T18:51:32.107243+00:00",
        "meta_object_name": "COSMOS 2251 DEB",
        "meta_object_id": "1993-036PR",
        "meta_epoch": "2025-12-20T13:27:22.970592",
        "meta_mean_motion": 14.69547895,
        "meta_eccentricity": 0.00240527,
        "meta_inclination": 74.0205,
        "meta_ra_of_asc_node": 74.388,
        "meta_arg_of_pericenter": 346.5868,
        "meta_mean_anomaly": 122.6294,
        "meta_ephemeris_type": 0,
        "meta_classification_type": "U",
        "meta_norad_cat_id": 34343,
        "meta_element_set_no": 999,
        "meta_rev_at_epoch": 88845,
        "meta_bstar": 0.00074980306,
        "meta_mean_motion_dot": 4.441e-05,
        "meta_mean_motion_ddot": 0,
        "tle_line1": "1 34343U 93036PR  25354.56068253  .00004441  00000+0  74980-3 0  9995",
        "tle_line2": "2 34343  74.0205  74.3880 0024052 346.5868 122.6294 14.69547895888457"
      },
      "geometry": {
        "type": "Point",
        "coordinates": [
          -93.2585050542171,
          -37.68814274574926
        ]
      }
    },
    {
      "type": "Feature",
      "properties": {
        "norad_id": 34344,
        "name": "COSMOS 2251 DEB",
        "group": "cosmos-2251-debris",
        "lat": -41.642763085627905,
        "lon": -69.21396510245316,
        "alt_km": 777.3874064664124,
        "timestamp": "2025-12-20T18:51:32.107253+00:00",
        "meta_object_name": "COSMOS 2251 DEB",
        "meta_object_id": "1993-036PS",
        "meta_epoch": "2025-12-20T09:38:07.230048",
        "meta_mean_motion": 14.16465535,
        "meta_eccentricity": 0.01564034,
        "meta_inclination": 73.9801,
        "meta_ra_of_asc_node": 96.6707,
        "meta_arg_of_pericenter": 279.2715,
        "meta_mean_anomaly": 146.8712,
        "meta_ephemeris_type": 0,
        "meta_classification_type": "U",
        "meta_norad_cat_id": 34344,
        "meta_element_set_no": 999,
        "meta_rev_at_epoch": 86205,
        "meta_bstar": 0.0013958577,
        "meta_mean_motion_dot": 3.104e-05,
        "meta_mean_motion_ddot": 0,
        "tle_line1": "1 34344U 93036PS  25354.40147257  .00003104  00000+0  13959-2 0  9994",
        "tle_line2": "2 34344  73.9801  96.6707 0156403 279.2715 146.8712 14.16465535862055"
      },
      "geometry": {
        "type": "Point",
        "coordinates": [
          -69.21396510245316,
          -41.642763085627905
        ]
      }
    },
    {
      "type": "Feature",
      "properties": {
        "norad_id": 34346,
        "name": "COSMOS 2251 DEB",
        "group": "cosmos-2251-debris",
        "lat": -33.959999584650895,
        "lon": 129.43088109562498,
        "alt_km": 923.9434775012587,
        "timestamp": "2025-12-20T18:51:32.107263+00:00",
        "meta_object_name": "COSMOS 2251 DEB",
        "meta_object_id": "1993-036PU",
        "meta_epoch": "2025-12-20T06:26:22.409952",
        "meta_mean_motion": 13.99714459,
        "meta_eccentricity": 0.0206145,
        "meta_inclination": 73.9947,
        "meta_ra_of_asc_node": 299.1825,
        "meta_arg_of_pericenter": 116.3184,
        "meta_mean_anomaly": 10.2617,
        "meta_ephemeris_type": 0,
        "meta_classification_type": "U",
        "meta_norad_cat_id": 34346,
        "meta_element_set_no": 999,
        "meta_rev_at_epoch": 85515,
        "meta_bstar": 0.00074636,
        "meta_mean_motion_dot": 1.29e-05,
        "meta_mean_motion_ddot": 0,
        "tle_line1": "1 34346U 93036PU  25354.26831493  .00001290  00000+0  74636-3 0  9996",
        "tle_line2": "2 34346  73.9947 299.1825 0206145 116.3184  10.2617 13.99714459855152"
      },
      "geometry": {
        "type": "Point",
        "coordinates": [
          129.43088109562498,
          -33.959999584650895
        ]
      }
    },
    {
      "type": "Feature",
      "properties": {
        "norad_id": 34383,
        "name": "COSMOS 2251 DEB",
        "group": "cosmos-2251-debris",
        "lat": -15.747524508284517,
        "lon": -83.53823088386363,
        "alt_km": 540.8142341359435,
        "timestamp": "2025-12-20T18:51:32.107274+00:00",
        "meta_object_name": "COSMOS 2251 DEB",
        "meta_object_id": "1993-036PY",
        "meta_epoch": "2025-12-20T13:20:45.650688",
        "meta_mean_motion": 15.09635271,
        "meta_eccentricity": 0.00030128,
        "meta_inclination": 74.0218,
        "meta_ra_of_asc_node": 281.5702,
        "meta_arg_of_pericenter": 47.1277,
        "meta_mean_anomaly": 128.781,
        "meta_ephemeris_type": 0,
        "meta_classification_type": "U",
        "meta_norad_cat_id": 34383,
        "meta_element_set_no": 999,
        "meta_rev_at_epoch": 89231,
        "meta_bstar": 0.0019182006,
        "meta_mean_motion_dot": 0.00030962,
        "meta_mean_motion_ddot": 0,
        "tle_line1": "1 34383U 93036PY  25354.55608392  .00030962  00000+0  19182-2 0  9991",
        "tle_line2": "2 34383  74.0218 281.5702 0003012  47.1277 128.7810 15.09635271892313"
      },
      "geometry": {
        "type": "Point",
        "coordinates": [
          -83.53823088386363,
          -15.747524508284517
        ]
      }
    },
    {
      "type": "Feature",
      "properties": {
        "norad_id": 34387,
        "name": "COSMOS 2251 DEB",
        "group": "cosmos-2251-debris",
        "lat": -3.5293808438811656,
        "lon": 17.952264698593208,
        "alt_km": 757.7524159681407,
        "timestamp": "2025-12-20T18:51:32.107370+00:00",
        "meta_object_name": "COSMOS 2251 DEB",
        "meta_object_id": "1993-036QC",
        "meta_epoch": "2025-12-20T00:24:51.844608",
        "meta_mean_motion": 14.43835034,
        "meta_eccentricity": 0.00389086,
        "meta_inclination": 74.0389,
        "meta_ra_of_asc_node": 198.3689,
        "meta_arg_of_pericenter": 293.9589,
        "meta_mean_anomaly": 217.0097,
        "meta_ephemeris_type": 0,
        "meta_classification_type": "U",
        "meta_norad_cat_id": 34387,
        "meta_element_set_no": 999,
        "meta_rev_at_epoch": 88286,
        "meta_bstar": 0.0002059113,
        "meta_mean_motion_dot": 6.81e-06,
        "meta_mean_motion_ddot": 0,
        "tle_line1": "1 34387U 93036QC  25354.01726672  .00000681  00000+0  20591-3 0  9990",
        "tle_line2": "2 34387  74.0389 198.3689 0038908 293.9589 217.0097 14.43835034882868"
      },
      "geometry": {
        "type": "Point",
        "coordinates": [
          17.952264698593208,
          -3.5293808438811656
        ]
      }
    },
    {
      "type": "Feature",
      "properties": {
        "norad_id": 34388,
        "name": "COSMOS 2251 DEB",
        "group": "cosmos-2251-debris",
        "lat": -31.2539033583847,
        "lon": -161.98883998185138,
        "alt_km": 730.2089634951963,
        "timestamp": "2025-12-20T18:51:32.107384+00:00",
        "meta_object_name": "COSMOS 2251 DEB",
        "meta_object_id": "1993-036QD",
        "meta_epoch": "2025-12-20T01:29:18.186720",
        "meta_mean_motion": 14.49397701,
        "meta_eccentricity": 0.00138097,
        "meta_inclination": 74.038,
        "meta_ra_of_asc_node": 209.3716,
        "meta_arg_of_pericenter": 257.1748,
        "meta_mean_anomaly": 255.1303,
        "meta_ephemeris_type": 0,
        "meta_classification_type": "U",
        "meta_norad_cat_id": 34388,
        "meta_element_set_no": 999,
        "meta_rev_at_epoch": 88261,
        "meta_bstar": 0.00041867918,
        "meta_mean_motion_dot": 1.576e-05,
        "meta_mean_motion_ddot": 0,
        "tle_line1": "1 34388U 93036QD  25354.06201605  .00001576  00000+0  41868-3 0  9994",
        "tle_line2": "2 34388  74.0380 209.3716 0013809 257.1748 255.1303 14.49397701882612"
      },
      "geometry": {
        "type": "Point",
        "coordinates": [
          -161.98883998185138,
          -31.2539033583847
        ]
      }
    }
  ]
}